format  = 'OEF2.0'       ! file format
rectype = 'ML'           ! record type (1L/ML)
refsys  = ECLM J2000     ! default reference system
END_OF_HEADER
! Gauss(wN)
2015AB
! Keplerian elements: a, e, i, long. node, arg. peric., mean anomaly
 KEP   1.8017359964884088E+00 0.283559128606282  11.6123546675043   0.4558460652427  71.3444224682644  25.2414224539431
 MJD     57049.242334574 TDT
 MAG   0.000  0.000
! Non-grav parameters: model used, actual number in use, dimension
 LSP   0  0    6
